OBJECT_NAME,OBJECT_ID,EPOCH,MEAN_MOTION,ECCENTRICITY,INCLINATION,RA_OF_ASC_NODE,ARG_OF_PERICENTER,MEAN_ANOMALY,EPHEMERIS_TYPE,CLASSIFICATION_TYPE,NORAD_CAT_ID,ELEMENT_SET_NO,REV_AT_EPOCH,BSTAR,MEAN_MOTION_DOT,MEAN_MOTION_DDOT
STARLINK-31031,2024-002G,2026-07-13T10:55:45.491232,15.34388688,.000126,53.1619,4.1446,87.2123,272.9024,0,U,58711,999,14129,.30434E-4,.652E-5,0
STARLINK-31029,2024-002H,2026-07-13T11:00:54.146592,15.30186641,.0001068,53.1616,5.5765,62.0088,298.1020,0,U,58712,999,14127,-.231E-4,-.1043E-4,0
STARLINK-30973,2024-002J,2026-07-12T21:03:32.455872,15.30190305,.00011668,53.1602,8.3451,91.9662,268.1472,0,U,58713,999,14118,.45991168E-4,.1003E-4,0
STARLINK-31100,2024-002K,2026-07-13T11:14:34.590624,15.30191434,.0000598,53.1613,5.6328,94.5113,265.5956,0,U,58714,999,14127,-.23692E-4,-.106E-4,0
STARLINK-31102,2024-002L,2026-07-12T18:35:30.306912,15.34392926,.00011173,53.1610,7.7056,113.1335,246.9785,0,U,58715,999,14118,.25869086E-4,.498E-5,0
STARLINK-31098,2024-002M,2026-07-12T18:03:01.511712,15.30192320,.00007713,53.1623,8.9824,99.7580,260.3508,0,U,58716,999,14116,.64017557E-4,.1537E-4,0
STARLINK-31093,2024-002N,2026-07-12T18:13:39.956736,15.30198957,.00010182,53.1622,9.0423,83.1783,276.9334,0,U,58717,999,14116,.21478555E-4,.277E-5,0
STARLINK-31097,2024-002P,2026-07-12T21:17:12.511104,15.30195263,.00011157,53.1608,8.4002,86.8535,273.2594,0,U,58718,999,14118,.30619851E-4,.548E-5,0
STARLINK-31051,2024-002Q,2026-07-13T11:31:17.408640,15.30194801,.0001003,53.1631,5.7031,69.7953,290.3156,0,U,58719,999,14127,.29971E-4,.529E-5,0
STARLINK-31027,2024-002R,2026-07-12T19:08:04.400160,15.76527133,.00068324,53.1394,334.6243,19.0534,341.0741,0,U,58720,999,14164,.65286007E-3,.106719E-2,0
STARLINK-30972,2024-002S,2026-07-13T11:11:32.356608,15.30191705,.0001202,53.1622,5.6167,109.2322,250.8809,0,U,58721,999,14127,.40202E-4,.831E-5,0
STARLINK-31040,2024-002T,2026-07-13T11:26:03.166656,15.34405728,.0001489,53.1615,4.2585,111.0456,249.0705,0,U,58722,999,14129,-.94285E-4,-.3561E-4,0
STARLINK-31033,2024-002U,2026-07-13T11:22:10.608096,15.30194669,.0001027,53.1605,5.6584,86.2276,273.8842,0,U,58723,999,14127,.82339E-4,.208E-4,0
STARLINK-30893,2024-002V,2026-07-13T11:10:54.475392,15.34389600,.0001156,53.1604,4.2044,84.8094,275.3040,0,U,58724,999,14128,.66701E-4,.1877E-4,0
STARLINK-30856,2024-002W,2026-07-13T11:16:05.860128,15.30190919,.0000647,53.1613,5.6330,109.7178,250.3892,0,U,58725,999,14127,.31791E-4,.583E-5,0
STARLINK-31115,2024-005B,2026-07-13T03:09:56.705184,15.27581420,.00012404,43.0014,231.7227,279.9775,80.0936,0,U,58729,999,13961,.10933549E-4,.39E-6,0
STARLINK-31180,2024-005E,2026-07-13T02:21:50.488128,15.27580225,.00010956,43.0021,231.4918,265.9759,94.0967,0,U,58732,999,13961,.5534206E-5,-.11E-5,0
STARLINK-31164,2024-005F,2026-07-13T03:20:51.719136,15.27574672,.00019119,43.0009,230.9334,285.8558,74.2082,0,U,58733,999,13962,.23349746E-4,.38E-5,0
STARLINK-31152,2024-005G,2026-07-13T01:52:13.631520,15.27577346,.00038773,42.9942,231.3207,152.2349,207.8710,0,U,58734,999,13962,.50776039E-4,.1134E-4,0
STARLINK-31157,2024-005H,2026-07-13T03:31:56.701056,15.27579488,.00011042,43.0022,230.9885,255.2718,104.8011,0,U,58735,999,13963,.16581325E-4,.194E-5,0
STARLINK-31076,2024-005J,2026-07-13T03:37:29.919936,15.27580036,.00014125,43.0026,231.0167,277.5183,82.5508,0,U,58736,999,13967,.25204426E-4,.431E-5,0
STARLINK-31101,2024-005K,2026-07-13T03:52:18.711552,15.27570025,.00016244,43.0032,231.0947,273.3556,86.7110,0,U,58737,999,13962,-.53503505E-4,-.1734E-4,0
STARLINK-31108,2024-005L,2026-07-13T02:08:53.120544,15.27579292,.00014725,43.0025,231.4150,273.1603,86.9080,0,U,58738,999,13961,-.1516547E-5,-.304E-5,0
STARLINK-31042,2024-005M,2026-07-12T02:51:20.480256,15.27583858,.00017853,43.0021,237.0236,240.3685,119.6989,0,U,58739,999,13947,.23248529E-4,.378E-5,0
STARLINK-31159,2024-005N,2026-07-13T09:35:36.564000,15.27582815,.0000848,42.9998,229.4380,266.0095,94.0659,0,U,58740,999,13976,.22965E-4,.37E-5,0
STARLINK-31148,2024-005P,2026-07-13T03:30:05.289984,15.27581223,.00011074,42.9960,230.9846,173.1790,186.9077,0,U,58741,999,13963,-.5735578E-5,-.42E-5,0
STARLINK-31151,2024-005Q,2026-07-13T02:06:59.845824,15.27611984,.00015416,42.9950,231.4114,174.6645,185.4223,0,U,58742,999,13971,.53456979E-4,.1211E-4,0
STARLINK-31156,2024-005R,2026-07-13T03:46:44.404896,15.27713532,.00016524,43.0046,231.0828,255.4469,104.6200,0,U,58743,999,13968,-.10943435E-2,-.30376E-3,0
STARLINK-31167,2024-005S,2026-07-12T17:00:52.468704,15.27577714,.00012403,43.0033,88.2661,278.8969,81.1742,0,U,58744,999,14132,.43358466E-4,.931E-5,0
STARLINK-31176,2024-005T,2026-07-13T04:07:06.165696,15.27581838,.00014696,43.0015,231.1813,273.5082,86.5602,0,U,58745,999,13967,.51218183E-4,.1148E-4,0
STARLINK-31181,2024-005U,2026-07-12T08:00:01.999872,15.27598018,.00014934,43.0006,83.6005,268.8905,128.4434,0,U,58746,999,582,-.61497567E-3,-.17155E-3,0
STARLINK-31183,2024-005V,2026-07-12T04:45:51.678720,15.27573474,.00021123,43.0008,236.7765,269.6206,90.4404,0,U,58747,999,13958,.18329661E-4,.242E-5,0
STARLINK-31165,2024-005W,2026-07-13T10:29:16.899360,15.27576350,.0001679,43.0012,229.7299,271.4970,88.5689,0,U,58748,999,13967,.27521E-4,.495E-5,0
STARLINK-31160,2024-005X,2026-07-13T06:07:11.748576,15.27540665,.000149,43.0000,230.8730,278.5822,81.4861,0,U,58749,999,13964,-.15568E-3,-.4538E-4,0
STARLINK-31179,2024-005Y,2026-07-13T02:47:45.568032,15.27586619,.00014184,43.0013,231.6227,257.2478,102.8215,0,U,58750,999,13962,.64062336E-4,.1501E-4,0
STARLINK-31127,2024-011A,2026-07-13T07:33:46.145952,15.30192512,.0001918,53.1609,150.1950,78.3412,281.7804,0,U,58765,999,13950,-.54483E-4,-.1972E-4,0
STARLINK-31114,2024-011B,2026-07-13T06:12:37.539648,15.30194314,.000194,53.1585,148.4446,76.7278,283.3939,0,U,58766,999,13952,-.15592E-4,-.821E-5,0
STARLINK-31140,2024-011C,2026-07-12T21:30:59.716800,15.34389368,.00004916,53.1599,151.1380,67.0481,293.0573,0,U,58767,999,13945,-.1120282E-5,-.413E-5,0
STARLINK-31146,2024-011E,2026-07-12T21:40:04.994112,15.34394413,.00012488,53.1599,151.1782,89.2159,270.8987,0,U,58769,999,13945,.52745448E-4,.1406E-4,0
STARLINK-31143,2024-011F,2026-07-12T21:49:10.445952,15.34394591,.0001327,53.1590,151.2192,95.4230,264.6924,0,U,58770,999,13945,.1030884E-3,.3108E-4,0
STARLINK-31135,2024-011G,2026-07-13T05:57:27.872928,15.30176390,.0001327,53.1590,148.3764,93.8169,266.2983,0,U,58771,999,13952,-.50184E-4,-.1844E-4,0
STARLINK-31136,2024-011H,2026-07-13T06:44:40.214400,15.34414767,.0001119,53.1604,149.2719,57.4590,302.6521,0,U,58772,999,13950,.58805E-4,.1612E-4,0
STARLINK-31073,2024-011J,2026-07-13T07:38:21.049152,15.30174061,.0001377,53.1601,150.2115,85.2975,274.8183,0,U,58773,999,13950,-.77734E-4,-.2659E-4,0
STARLINK-31122,2024-011K,2026-07-13T06:13:22.603296,15.30197510,.000151,53.1584,150.5473,71.5735,288.5430,0,U,58774,999,13949,-.3928E-5,-.476E-5,0
STARLINK-31123,2024-011L,2026-07-13T06:02:16.016064,15.34393003,.0002017,53.1581,149.0866,80.4725,279.6505,0,U,58775,999,1276,.62106E-4,.1722E-4,0
STARLINK-31117,2024-011M,2026-07-13T00:07:48.485856,15.30191752,.00016152,53.1579,151.8055,93.5127,266.6059,0,U,58776,999,13945,.58667729E-4,.1378E-4,0
STARLINK-31132,2024-011N,2026-07-12T22:02:41.568288,15.31709995,.00014212,53.1613,61.0541,104.2961,255.8199,0,U,58777,999,14074,.34259546E-4,.698E-5,0
STARLINK-31120,2024-011P,2026-07-13T06:59:49.475040,15.34397142,.0001423,53.1580,149.3277,97.6218,262.4946,0,U,58778,999,13951,.69882E-4,.1985E-4,0
STARLINK-31142,2024-011Q,2026-07-13T00:04:46.193952,15.30190411,.00009639,53.1592,151.7921,72.9071,287.2035,0,U,58779,999,13945,.37550462E-4,.753E-5,0
STARLINK-31099,2024-011S,2026-07-13T06:16:25.078368,15.30195239,.0001379,53.1594,150.5575,82.9363,277.1794,0,U,58781,999,13949,.27456E-4,.454E-5,0
STARLINK-31047,2024-011U,2026-07-12T20:49:54.928704,15.34391408,.00012995,53.1597,134.8774,85.8754,274.2397,0,U,58783,999,13967,.28147893E-4,.575E-5,0
STARLINK-31039,2024-011V,2026-07-13T09:15:25.852032,15.30179290,.000159,53.1596,149.9095,94.0128,266.1055,0,U,58784,999,13951,.13739E-3,.3709E-4,0
STARLINK-31034,2024-011W,2026-07-12T23:10:34.418496,15.34378550,.00012677,53.1600,47.1076,88.6547,271.4600,0,U,58785,999,14094,.1845833E-5,-.314E-5,0
STARLINK-31024,2024-011X,2026-07-13T06:14:10.271904,15.30173880,.00012,53.1598,148.4393,75.7452,284.3682,0,U,58786,999,13952,-.4058E-4,-.156E-4,0
STARLINK-31189,2024-012A,2026-07-12T23:49:06.051360,15.27580834,.00009883,43.0008,177.2413,267.8949,92.1789,0,U,58787,999,14040,.16747001E-4,.199E-5,0
STARLINK-31185,2024-012B,2026-07-13T07:27:08.345664,15.27581583,.0000841,42.9993,176.1884,283.1899,76.8859,0,U,58788,999,14044,-.50889E-5,-.402E-5,0
STARLINK-31166,2024-012C,2026-07-13T00:13:09.073056,15.27575384,.00013976,43.0035,177.3665,288.6664,71.4036,0,U,58789,999,14040,.21346757E-4,.325E-5,0
STARLINK-31187,2024-012D,2026-07-13T08:59:26.576160,15.27583617,.0001346,43.0012,175.8078,278.6791,81.3908,0,U,58790,999,14045,.50366E-4,.1124E-4,0
STARLINK-31162,2024-012E,2026-07-13T00:11:18.138048,15.27580136,.00012009,43.0029,177.3652,277.5156,82.5559,0,U,58791,999,14040,.315493E-5,-.175E-5,0
STARLINK-31184,2024-012G,2026-07-13T09:28:50.109888,15.27581260,.0001136,43.0021,175.1045,270.8218,89.2504,0,U,58793,999,14046,.51282E-4,.1149E-4,0
STARLINK-31192,2024-012H,2026-07-13T07:21:35.309088,15.27580852,.0001125,43.0006,176.1510,289.8737,70.1993,0,U,58794,999,14044,.46515E-5,-.134E-5,0
STARLINK-31161,2024-012J,2026-07-13T00:07:37.440480,15.27561503,.000076,43.0012,177.3389,259.3318,100.7449,0,U,58795,999,14040,-.49582735E-4,-.1625E-4,0
STARLINK-31195,2024-012K,2026-07-13T07:32:41.171424,15.27580903,.0001071,43.0014,176.2152,304.5374,55.5377,0,U,58796,999,14044,.75473E-5,-.54E-6,0
STARLINK-31193,2024-012L,2026-07-13T00:20:33.187200,15.27578672,.00016779,43.0035,177.4064,286.0892,73.9774,0,U,58797,999,14040,.48121147E-4,.1062E-4,0
